G21 ; mm
G90 ; absolute positioning
G0 A0.00 X0.00 Y10.00 Z0.50
G1 A0.00 X0.00 Y10.00 Z0.50 F500
G1 A360.00 X1.00 Y10.00 Z0.50 F500
G1 A720.00 X2.00 Y10.00 Z0.50 F500
G1 A1080.00 X3.00 Y10.00 Z0.50 F500
G1 A1440.00 X4.00 Y10.00 Z0.50 F500
G1 A1800.00 X5.00 Y10.00 Z0.50 F500
G1 A2160.00 X6.00 Y10.00 Z0.50 F500
G1 A2520.00 X7.00 Y10.00 Z0.50 F500
G1 A2880.00 X8.00 Y10.00 Z0.50 F500
G1 A3240.00 X9.00 Y10.00 Z0.50 F500
G1 A3600.00 X10.00 Y10.00 Z0.50 F500
G1 A3960.00 X11.00 Y10.00 Z0.50 F500
G1 A4320.00 X12.00 Y10.00 Z0.50 F500
G1 A4680.00 X13.00 Y10.00 Z0.50 F500
G1 A5040.00 X14.00 Y10.00 Z0.50 F500
G1 A5400.00 X15.00 Y10.00 Z0.50 F500
G1 A5760.00 X16.00 Y10.00 Z0.50 F500
G1 A6120.00 X17.00 Y10.00 Z0.50 F500
G1 A6480.00 X18.00 Y10.00 Z0.50 F500
G1 A6840.00 X19.00 Y10.00 Z0.50 F500
G1 A7200.00 X0.00 Y10.00 Z0.50 F500
G1 A7560.00 X1.00 Y10.00 Z0.50 F500
G1 A7920.00 X2.00 Y10.00 Z0.50 F500
G1 A8280.00 X3.00 Y10.00 Z0.50 F500
G1 A8640.00 X4.00 Y10.00 Z0.50 F500
G1 A9000.00 X5.00 Y10.00 Z0.50 F500
G1 A9360.00 X6.00 Y10.00 Z0.50 F500
G1 A9720.00 X7.00 Y10.00 Z0.50 F500
G1 A10080.00 X8.00 Y10.00 Z0.50 F500
G1 A10440.00 X9.00 Y10.00 Z0.50 F500
G1 A10800.00 X10.00 Y10.00 Z0.50 F500
G1 A11160.00 X11.00 Y10.00 Z0.50 F500
G1 A11520.00 X12.00 Y10.00 Z0.50 F500
G1 A11880.00 X13.00 Y10.00 Z0.50 F500
G1 A12240.00 X14.00 Y10.00 Z0.50 F500
G1 A12600.00 X15.00 Y10.00 Z0.50 F500
G1 A12960.00 X16.00 Y10.00 Z0.50 F500
G1 A13320.00 X17.00 Y10.00 Z0.50 F500
G1 A13680.00 X18.00 Y10.00 Z0.50 F500
G1 A14040.00 X19.00 Y10.00 Z0.50 F500
G1 A14400.00 X0.00 Y10.00 Z0.50 F500
G1 A14760.00 X1.00 Y10.00 Z0.50 F500
G1 A15120.00 X2.00 Y10.00 Z0.50 F500
G1 A15480.00 X3.00 Y10.00 Z0.50 F500
G1 A15840.00 X4.00 Y10.00 Z0.50 F500
G1 A16200.00 X5.00 Y10.00 Z0.50 F500
G1 A16560.00 X6.00 Y10.00 Z0.50 F500
G1 A16920.00 X7.00 Y10.00 Z0.50 F500
G1 A17280.00 X8.00 Y10.00 Z0.50 F500
G1 A17640.00 X9.00 Y10.00 Z0.50 F500
G1 A18000.00 X10.00 Y10.00 Z0.50 F500
G1 A18360.00 X11.00 Y10.00 Z0.50 F500
G1 A18720.00 X12.00 Y10.00 Z0.50 F500
G1 A19080.00 X13.00 Y10.00 Z0.50 F500
G1 A19440.00 X14.00 Y10.00 Z0.50 F500
G1 A19800.00 X15.00 Y10.00 Z0.50 F500
G1 A20160.00 X16.00 Y10.00 Z0.50 F500
G1 A20520.00 X17.00 Y10.00 Z0.50 F500
G1 A20880.00 X18.00 Y10.00 Z0.50 F500
G1 A21240.00 X19.00 Y10.00 Z0.50 F500
G1 A21600.00 X0.00 Y10.00 Z0.50 F500
G1 A21960.00 X1.00 Y10.00 Z0.50 F500
G1 A22320.00 X2.00 Y10.00 Z0.50 F500
G1 A22680.00 X3.00 Y10.00 Z0.50 F500
G1 A23040.00 X4.00 Y10.00 Z0.50 F500
G1 A23400.00 X5.00 Y10.00 Z0.50 F500
G1 A23760.00 X6.00 Y10.00 Z0.50 F500
G1 A24120.00 X7.00 Y10.00 Z0.50 F500
G1 A24480.00 X8.00 Y10.00 Z0.50 F500
G1 A24840.00 X9.00 Y10.00 Z0.50 F500
G1 A25200.00 X10.00 Y10.00 Z0.50 F500
G1 A25560.00 X11.00 Y10.00 Z0.50 F500
G1 A25920.00 X12.00 Y10.00 Z0.50 F500
G1 A26280.00 X13.00 Y10.00 Z0.50 F500
G1 A26640.00 X14.00 Y10.00 Z0.50 F500
G1 A27000.00 X15.00 Y10.00 Z0.50 F500
G1 A27360.00 X16.00 Y10.00 Z0.50 F500
G1 A27720.00 X17.00 Y10.00 Z0.50 F500
G1 A28080.00 X18.00 Y10.00 Z0.50 F500
G1 A28440.00 X19.00 Y10.00 Z0.50 F500